ONEWEB-0128             
1 47274U 20100S   25008.59549794  .00000143  00000+0  36148-3 0  9996
2 47274  87.8886  95.1495 0001660 114.0306 246.0997 13.12442721195933
ONEWEB-0129             
1 47275U 20100T   25008.26945232  .00000164  00000+0  42009-3 0  9994
2 47275  87.8888  95.1696 0003145 113.8546 246.2912 13.12438656195821
ONEWEB-0130             
1 47276U 20100U   25008.60198814  .00000408  00000+0  10996-2 0  9999
2 47276  87.8877  95.1066 0001749 109.9179 250.2138 13.12442326195832
ONEWEB-0131             
1 47277U 20100V   25008.59874269  .00000386  00000+0  10386-2 0  9991
2 47277  87.8880  95.1280 0001687 108.7721 251.3591 13.12443259195871
ONEWEB-0132             
1 47278U 20100W   25008.47545828 -.00000043  00000+0 -15439-3 0  9992
2 47278  87.8880  95.1542 0001531 101.0886 259.0414 13.12443591195754
ONEWEB-0133             
1 47279U 20100X   25008.49167673 -.00000688  00000+0 -19478-2 0  9994
2 47279  87.8874  95.1376 0001682 108.1438 251.9874 13.12442732195916
ONEWEB-0134             
1 47280U 20100Y   25008.46086137  .00000400  00000+0  10758-2 0  9990
2 47280  87.8873  95.1298 0001792 115.3018 244.8296 13.12445131195887
ONEWEB-0135             
1 47281U 20100Z   25008.50789194 -.00000150  00000+0 -45316-3 0  9992
2 47281  87.8880  95.1483 0001642 122.7288 237.3999 13.12442109195910
